{
    "links": {
        "self": "http://www.neowsapp.com/rest/v1/neo/3791250?api_key=iIulBulltgU6a56xZRHN4H3l9WmuAYTsLGpBGhQ2"
    },
    "id": "3791250",
    "neo_reference_id": "3791250",
    "name": "(2017 XL1)",
    "designation": "2017 XL1",
    "nasa_jpl_url": "http://ssd.jpl.nasa.gov/sbdb.cgi?sstr=3791250",
    "absolute_magnitude_h": 23.8,
    "estimated_diameter": {
        "kilometers": {
            "estimated_diameter_min": 0.046190746,
            "estimated_diameter_max": 0.1032856481
        },
        "meters": {
            "estimated_diameter_min": 46.1907460282,
            "estimated_diameter_max": 103.2856480504
        },
        "miles": {
            "estimated_diameter_min": 0.0287015901,
            "estimated_diameter_max": 0.0641787064
        },
        "feet": {
            "estimated_diameter_min": 151.544447199,
            "estimated_diameter_max": 338.8636855496
        }
    },
    "is_potentially_hazardous_asteroid": false,
    "close_approach_data": [
        {
            "close_approach_date": "2017-11-10",
            "close_approach_date_full": "2017-Nov-10 21:15",
            "epoch_date_close_approach": 1510348500000,
            "relative_velocity": {
                "kilometers_per_second": "6.4185206337",
                "kilometers_per_hour": "23106.6742811471",
                "miles_per_hour": "14357.5888054161"
            },
            "miss_distance": {
                "astronomical": "0.1539453518",
                "lunar": "59.8847418502",
                "kilometers": "23029896.725680666",
                "miles": "14310114.2565225508"
            },
            "orbiting_body": "Earth"
        }
    ],
    "orbital_data": {
        "orbit_id": "3",
        "orbit_determination_date": "2017-12-29 06:22:25",
        "first_observation_date": "2017-12-08",
        "last_observation_date": "2017-12-16",
        "data_arc_in_days": 8,
        "observations_used": 15,
        "orbit_uncertainty": "8",
        "minimum_orbit_intersection": ".147689",
        "jupiter_tisserand_invariant": "3.219",
        "epoch_osculation": "2458097.5",
        "eccentricity": ".5522518667172597",
        "semi_major_axis": "2.517890570162029",
        "inclination": "6.350555176430586",
        "ascending_node_longitude": "72.56355507074311",
        "orbital_period": "1459.330649763864",
        "perihelion_distance": "1.127380802600263",
        "perihelion_argument": "328.9790482360118",
        "aphelion_distance": "3.908400337723795",
        "perihelion_time": "2458064.049240626620",
        "mean_anomaly": "8.251915613754413",
        "mean_motion": ".2466884390170603",
        "equinox": "J2000",
        "orbit_class": {
            "orbit_class_type": "AMO",
            "orbit_class_description": "Near-Earth asteroid orbits similar to that of 1221 Amor",
            "orbit_class_range": "1.017 AU < q (perihelion) < 1.3 AU"
        }
    },
    "is_sentry_object": false
}